[{"OBJECT_NAME":"ONEWEB-0141","OBJECT_ID":"2020-100AF","EPOCH":"2026-03-09T21:45:58.352832","MEAN_MOTION":13.12442495,"ECCENTRICITY":0.00018574,"INCLINATION":87.9004,"RA_OF_ASC_NODE":10.3501,"ARG_OF_PERICENTER":69.0423,"MEAN_ANOMALY":291.0905,"EPHEMERIS_TYPE":0,"CLASSIFICATION_TYPE":"U","NORAD_CAT_ID":47287,"ELEMENT_SET_NO":999,"REV_AT_EPOCH":25165,"BSTAR":0.0014075556,"MEAN_MOTION_DOT":5.19e-6,"MEAN_MOTION_DDOT":0},{"OBJECT_NAME":"CZ-4C DEB","OBJECT_ID":"2014-080K","EPOCH":"2026-03-03T02:18:11.816640","MEAN_MOTION":13.44756707,"ECCENTRICITY":0.03687139,"INCLINATION":63.3828,"RA_OF_ASC_NODE":243.2011,"ARG_OF_PERICENTER":10.6946,"MEAN_ANOMALY":350.1653,"EPHEMERIS_TYPE":0,"CLASSIFICATION_TYPE":"U","NORAD_CAT_ID":43421,"ELEMENT_SET_NO":999,"REV_AT_EPOCH":47491,"BSTAR":0.00017362276,"MEAN_MOTION_DOT":6.3e-7,"MEAN_MOTION_DDOT":0}]
